{"type": "FeatureCollection", "features": [ {"type": "Feature", "properties": {"norad_id": 35744, "name": "IRIDIUM 33 DEB", "group": "iridium-33-debris", "lat": 79.05284234123769, "lon": -20.381849778033292, "alt_km": 645.505535299897, "timestamp": "2025-12-24T05:51:19.994612+00:00", "meta": {"OBJECT_NAME": "IRIDIUM 33 DEB", "OBJECT_ID": "1997-051RX", "EPOCH": "2025-12-23T03:22:28.782624", "MEAN_MOTION": 14.71122887, "ECCENTRICITY": 0.00216776, "INCLINATION": 86.3298, "RA_OF_ASC_NODE": 320.7354, "ARG_OF_PERICENTER": 155.7913, "MEAN_ANOMALY": 204.4327, "EPHEMERIS_TYPE": 0, "CLASSIFICATION_TYPE": "U", "NORAD_CAT_ID": 35744, "ELEMENT_SET_NO": 999, "REV_AT_EPOCH": 87484, "BSTAR": 0.0012113531, "MEAN_MOTION_DOT": 7.502e-05, "MEAN_MOTION_DDOT": 0}, "tle": {"line1": "1 35744U 97051RX  25357.14061091  .00007502  00000+0  12114-2 0  9993", "line2": "2 35744  86.3298 320.7354 0021677 155.7913 204.4327 14.71122887874843"}}, "geometry": {"type": "Point", "coordinates": [-20.381849778033292, 79.05284234123769]}}, {"type": "Feature", "properties": {"norad_id": 35797, "name": "IRIDIUM 33 DEB", "group": "iridium-33-debris", "lat": -62.425604578592456, "lon": -42.36233475004761, "alt_km": 637.2742987160182, "timestamp": "2025-12-24T05:51:19.994623+00:00", "meta": {"OBJECT_NAME": "IRIDIUM 33 DEB", "OBJECT_ID": "1997-051SF", "EPOCH": "2025-12-23T04:13:41.927808", "MEAN_MOTION": 14.83019917, "ECCENTRICITY": 0.00147795, "INCLINATION": 86.3362, "RA_OF_ASC_NODE": 325.1762, "ARG_OF_PERICENTER": 114.8894, "MEAN_ANOMALY": 245.3866, "EPHEMERIS_TYPE": 0, "CLASSIFICATION_TYPE": "U", "NORAD_CAT_ID": 35797, "ELEMENT_SET_NO": 999, "REV_AT_EPOCH": 87495, "BSTAR": 0.0018258905, "MEAN_MOTION_DOT": 0.0001491, "MEAN_MOTION_DDOT": 0}, "tle": {"line1": "1 35797U 97051SF  25357.17617972  .00014910  00000+0  18259-2 0  9996", "line2": "2 35797  86.3362 325.1762 0014779 114.8894 245.3866 14.83019917874950"}}, "geometry": {"type": "Point", "coordinates": [-42.36233475004761, -62.425604578592456]}}, {"type": "Feature", "properties": {"norad_id": 35806, "name": "IRIDIUM 33 DEB", "group": "iridium-33-debris", "lat": -85.96309989567604, "lon": -99.46302889374951, "alt_km": 716.1173863806716, "timestamp": "2025-12-24T05:51:19.994633+00:00", "meta": {"OBJECT_NAME": "IRIDIUM 33 DEB", "OBJECT_ID": "1997-051SQ", "EPOCH": "2025-12-23T18:44:28.886496", "MEAN_MOTION": 14.57443021, "ECCENTRICITY": 0.00152726, "INCLINATION": 86.3434, "RA_OF_ASC_NODE": 15.7661, "ARG_OF_PERICENTER": 41.8859, "MEAN_ANOMALY": 318.3515, "EPHEMERIS_TYPE": 0, "CLASSIFICATION_TYPE": "U", "NORAD_CAT_ID": 35806, "ELEMENT_SET_NO": 999, "REV_AT_EPOCH": 86485, "BSTAR": 0.0011018111, "MEAN_MOTION_DOT": 5.028e-05, "MEAN_MOTION_DDOT": 0}, "tle": {"line1": "1 35806U 97051SQ  25357.78088989  .00005028  00000+0  11018-2 0  9990", "line2": "2 35806  86.3434  15.7661 0015272  41.8859 318.3515 14.57443021864858"}}, "geometry": {"type": "Point", "coordinates": [-99.46302889374951, -85.96309989567604]}}, {"type": "Feature", "properties": {"norad_id": 35809, "name": "IRIDIUM 33 DEB", "group": "iridium-33-debris", "lat": -45.29381154615604, "lon": -33.6119087872553, "alt_km": 652.4317937125679, "timestamp": "2025-12-24T05:51:19.994643+00:00", "meta": {"OBJECT_NAME": "IRIDIUM 33 DEB", "OBJECT_ID": "1997-051ST", "EPOCH": "2025-12-21T16:13:39.380736", "MEAN_MOTION": 14.75870585, "ECCENTRICITY": 0.00102664, "INCLINATION": 86.3279, "RA_OF_ASC_NODE": 331.2775, "ARG_OF_PERICENTER": 205.8578, "MEAN_ANOMALY": 154.2129, "EPHEMERIS_TYPE": 0, "CLASSIFICATION_TYPE": "U", "NORAD_CAT_ID": 35809, "ELEMENT_SET_NO": 999, "REV_AT_EPOCH": 86939, "BSTAR": 0.0013721853, "MEAN_MOTION_DOT": 9.452e-05, "MEAN_MOTION_DDOT": 0}, "tle": {"line1": "1 35809U 97051ST  25355.67615024  .00009452  00000+0  13722-2 0  9994", "line2": "2 35809  86.3279 331.2775 0010266 205.8578 154.2129 14.75870585869399"}}, "geometry": {"type": "Point", "coordinates": [-33.6119087872553, -45.29381154615604]}}, {"type": "Feature", "properties": {"norad_id": 35846, "name": "IRIDIUM 33 DEB", "group": "iridium-33-debris", "lat": -6.416828810153074, "lon": -125.6608424861162, "alt_km": 743.1106996488606, "timestamp": "2025-12-24T05:51:19.994653+00:00", "meta": {"OBJECT_NAME": "IRIDIUM 33 DEB", "OBJECT_ID": "1997-051SW", "EPOCH": "2025-12-23T14:01:12.504000", "MEAN_MOTION": 14.43194543, "ECCENTRICITY": 0.00197172, "INCLINATION": 86.3733, "RA_OF_ASC_NODE": 54.2121, "ARG_OF_PERICENTER": 136.6832, "MEAN_ANOMALY": 223.5924, "EPHEMERIS_TYPE": 0, "CLASSIFICATION_TYPE": "U", "NORAD_CAT_ID": 35846, "ELEMENT_SET_NO": 999, "REV_AT_EPOCH": 71485, "BSTAR": 0.00049457633, "MEAN_MOTION_DOT": 1.685e-05, "MEAN_MOTION_DDOT": 0}, "tle": {"line1": "1 35846U 97051SW  25357.58417250  .00001685  00000+0  49458-3 0  9994", "line2": "2 35846  86.3733  54.2121 0019717 136.6832 223.5924 14.43194543714857"}}, "geometry": {"type": "Point", "coordinates": [-125.6608424861162, -6.416828810153074]}}, {"type": "Feature", "properties": {"norad_id": 35848, "name": "IRIDIUM 33 DEB", "group": "iridium-33-debris", "lat": 28.267914971918938, "lon": 12.894542679572726, "alt_km": 635.1233534182611, "timestamp": "2025-12-24T05:51:19.994664+00:00", "meta": {"OBJECT_NAME": "IRIDIUM 33 DEB", "OBJECT_ID": "1997-051SY", "EPOCH": "2025-12-23T08:36:58.937472", "MEAN_MOTION": 14.78845827, "ECCENTRICITY": 0.00091619, "INCLINATION": 86.3897, "RA_OF_ASC_NODE": 11.347, "ARG_OF_PERICENTER": 152.9599, "MEAN_ANOMALY": 207.2101, "EPHEMERIS_TYPE": 0, "CLASSIFICATION_TYPE": "U", "NORAD_CAT_ID": 35848, "ELEMENT_SET_NO": 999, "REV_AT_EPOCH": 66847, "BSTAR": 0.0014935306, "MEAN_MOTION_DOT": 0.00011029, "MEAN_MOTION_DDOT": 0}, "tle": {"line1": "1 35848U 97051SY  25357.35901548  .00011029  00000+0  14935-2 0  9993", "line2": "2 35848  86.3897  11.3470 0009161 152.9599 207.2101 14.78845827668472"}}, "geometry": {"type": "Point", "coordinates": [12.894542679572726, 28.267914971918938]}}, {"type": "Feature", "properties": {"norad_id": 35850, "name": "IRIDIUM 33 DEB", "group": "iridium-33-debris", "lat": 1.4233450545597697, "lon": -20.89823992806924, "alt_km": 641.2364132064704, "timestamp": "2025-12-24T05:51:19.994677+00:00", "meta": {"OBJECT_NAME": "IRIDIUM 33 DEB", "OBJECT_ID": "1997-051TA", "EPOCH": "2025-12-23T16:51:33.482304", "MEAN_MOTION": 14.79050016, "ECCENTRICITY": 0.00107739, "INCLINATION": 86.3501, "RA_OF_ASC_NODE": 339.2572, "ARG_OF_PERICENTER": 146.4147, "MEAN_ANOMALY": 213.7758, "EPHEMERIS_TYPE": 0, "CLASSIFICATION_TYPE": "U", "NORAD_CAT_ID": 35850, "ELEMENT_SET_NO": 999, "REV_AT_EPOCH": 71519, "BSTAR": 0.001670653, "MEAN_MOTION_DOT": 0.00012399, "MEAN_MOTION_DDOT": 0}, "tle": {"line1": "1 35850U 97051TA  25357.70247086  .00012399  00000+0  16707-2 0  9995", "line2": "2 35850  86.3501 339.2572 0010773 146.4147 213.7758 14.79050016715191"}}, "geometry": {"type": "Point", "coordinates": [-20.89823992806924, 1.4233450545597697]}}, {"type": "Feature", "properties": {"norad_id": 35915, "name": "IRIDIUM 33 DEB", "group": "iridium-33-debris", "lat": 20.97440072889905, "lon": -20.896228981015554, "alt_km": 630.9686934582069, "timestamp": "2025-12-24T05:51:19.994689+00:00", "meta": {"OBJECT_NAME": "IRIDIUM 33 DEB", "OBJECT_ID": "1997-051TY", "EPOCH": "2025-12-22T16:27:49.238784", "MEAN_MOTION": 14.80964903, "ECCENTRICITY": 0.00122455, "INCLINATION": 86.3447, "RA_OF_ASC_NODE": 338.4114, "ARG_OF_PERICENTER": 150.5648, "MEAN_ANOMALY": 209.6266, "EPHEMERIS_TYPE": 0, "CLASSIFICATION_TYPE": "U", "NORAD_CAT_ID": 35915, "ELEMENT_SET_NO": 999, "REV_AT_EPOCH": 8233, "BSTAR": 0.0017914035, "MEAN_MOTION_DOT": 0.00013917, "MEAN_MOTION_DDOT": 0}, "tle": {"line1": "1 35915U 97051TY  25356.68598656  .00013917  00000+0  17914-2 0  9993", "line2": "2 35915  86.3447 338.4114 0012245 150.5648 209.6266 14.80964903 82335"}}, "geometry": {"type": "Point", "coordinates": [-20.896228981015554, 20.97440072889905]}}, {"type": "Feature", "properties": {"norad_id": 35918, "name": "IRIDIUM 33 DEB", "group": "iridium-33-debris", "lat": 32.268824925084104, "lon": 73.15586961953038, "alt_km": 723.0396944590457, "timestamp": "2025-12-24T05:51:19.994699+00:00", "meta": {"OBJECT_NAME": "IRIDIUM 33 DEB", "OBJECT_ID": "1997-051UB", "EPOCH": "2025-12-23T11:35:29.857344", "MEAN_MOTION": 14.51328977, "ECCENTRICITY": 0.0028413, "INCLINATION": 86.4002, "RA_OF_ASC_NODE": 71.2045, "ARG_OF_PERICENTER": 135.285, "MEAN_ANOMALY": 243.9712, "EPHEMERIS_TYPE": 0, "CLASSIFICATION_TYPE": "U", "NORAD_CAT_ID": 35918, "ELEMENT_SET_NO": 999, "REV_AT_EPOCH": 85363, "BSTAR": 0.0010733653, "MEAN_MOTION_DOT": 4.316e-05, "MEAN_MOTION_DDOT": 0}, "tle": {"line1": "1 35918U 97051UB  25357.48298446  .00004316  00000+0  10734-2 0  9995", "line2": "2 35918  86.4002  71.2045 0028413 135.2850 243.9712 14.51328977853639"}}, "geometry": {"type": "Point", "coordinates": [73.15586961953038, 32.268824925084104]}}, {"type": "Feature", "properties": {"norad_id": 35929, "name": "IRIDIUM 33 DEB", "group": "iridium-33-debris", "lat": 66.33849311894849, "lon": 118.76291162583601, "alt_km": 555.018729058269, "timestamp": "2025-12-24T05:51:19.994709+00:00", "meta": {"OBJECT_NAME": "IRIDIUM 33 DEB", "OBJECT_ID": "1997-051UN", "EPOCH": "2025-12-23T14:58:27.135552", "MEAN_MOTION": 15.03115552, "ECCENTRICITY": 0.00156026, "INCLINATION": 86.3353, "RA_OF_ASC_NODE": 307.468, "ARG_OF_PERICENTER": 2.5785, "MEAN_ANOMALY": 357.5526, "EPHEMERIS_TYPE": 0, "CLASSIFICATION_TYPE": "U", "NORAD_CAT_ID": 35929, "ELEMENT_SET_NO": 999, "REV_AT_EPOCH": 87943, "BSTAR": 0.0026490117, "MEAN_MOTION_DOT": 0.00035991, "MEAN_MOTION_DDOT": 0}, "tle": {"line1": "1 35929U 97051UN  25357.62392518  .00035991  00000+0  26490-2 0  9997", "line2": "2 35929  86.3353 307.4680 0015602   2.5785 357.5526 15.03115552879439"}}, "geometry": {"type": "Point", "coordinates": [118.76291162583601, 66.33849311894849]}}]}